[{"OBJECT_NAME":"SJ-7","OBJECT_ID":"2005-024A","EPOCH":"2026-03-09T19:15:10.985472","MEAN_MOTION":15.19970131,"ECCENTRICITY":0.00167613,"INCLINATION":97.7412,"RA_OF_ASC_NODE":96.2911,"ARG_OF_PERICENTER":23.4499,"MEAN_ANOMALY":336.7495,"EPHEMERIS_TYPE":0,"CLASSIFICATION_TYPE":"U","NORAD_CAT_ID":28737,"ELEMENT_SET_NO":999,"REV_AT_EPOCH":13292,"BSTAR":0.00046264907,"MEAN_MOTION_DOT":9.925e-5,"MEAN_MOTION_DDOT":0},{"OBJECT_NAME":"DRUMS","OBJECT_ID":"2021-102G","EPOCH":"2026-03-09T16:02:04.019712","MEAN_MOTION":15.19452308,"ECCENTRICITY":0.00145193,"INCLINATION":97.3433,"RA_OF_ASC_NODE":108.4998,"ARG_OF_PERICENTER":215.993,"MEAN_ANOMALY":144.0328,"EPHEMERIS_TYPE":0,"CLASSIFICATION_TYPE":"U","NORAD_CAT_ID":49401,"ELEMENT_SET_NO":999,"REV_AT_EPOCH":23846,"BSTAR":0.00031687422,"MEAN_MOTION_DOT":6.67e-5,"MEAN_MOTION_DDOT":0}]
