SJ-7                    
1 28737U 05024A   26068.80221048  .00009925  00000+0  46265-3 0  9995
2 28737  97.7412  96.2911 0016761  23.4499 336.7495 15.19970131132920
DRUMS                   
1 49401U 21102G   26068.66810207  .00006670  00000+0  31687-3 0  9992
2 49401  97.3433 108.4998 0014519 215.9930 144.0328 15.19452308238460
